# Made by eph2tle, compiled Mar 14 2022 21:30:31
# Run at Tue Mar 15 10:31:08 2022
#
# No updates
#
#    The following TLEs (Two-Line Elements) were generated by fitting
# a numerically-integrated ephemeris,  based on the orbit given below,
# to the SDP4/SGP4 models.  Each TLE is good for the interval between
# its epoch and the epoch of the subsequent TLE (usually one day).
# The maximum deviation between the numerically integrated ephemerides
# and the TLE-based ephemeris, in kilometers,  is given for each TLE
# as the "worst residual".
#
#    This fitting is done using the 'eph2tle' code packaged with Find_Orb.
# The code has details on how the TLEs were computed :
#
#    https://github.com/Bill-Gray/find_orb/eph2tle.cpp
#
#    Be warned:  the error given is that between the numerically
# integrated ephems and the TLE model.  There will usually be at
# least some additional difference between the ephems and the actual
# motion of the satellite,  especially if the ephemerides are based
# on a short arc.  If the following orbital elements say something
# like "[based on] 10 observations 2015 Jan. 1-13",  and the TLEs
# are for 2015 May,  the extrapolation may be tenuous at best.  If
# your application requires a specific level of accuracy,  you may
# want to contact me;  I can give you some idea as to the fit of the
# underlying data (and possibly TLEs based on newer data).
#
#   You can usually find the underlying observational data,  and the
# fitted orbit,  residuals,  ephemerides,  and sometimes some comments
# about the object,  among the pages listed at
#
#    https://www.projectpluto.com/pluto/mpecs/pseudo.htm
#
#    Also,  if you use a TLE outside the "correct" time range (between
# its MJD and that of the next TLE),  all bets are off.  I've carefully
# computed and minimized the worst error over the "correct" time frame,
# but the ephemeris may (or may not) diverge wildly outside of it.
#
# Ephem range: 59611.000000 59700.000000 1.000000
# Created Tue Mar 15 10:30:37 2022
# Ephemeris start:  1 Feb 2022  0:00:00
# Ephemeris end:    1 May 2022  0:00:00
# Times are all TDT
# Positions/velocities are in equatorial J2000
# Orbital elements:  A10GxdK
#    Perigee 2022 Mar 9.07157 +/- 0.0104 TT =  1:43:03 (JD 2459647.57157)
# Epoch 2022 Mar  9.0 TT = JDT 2459647.5                        Find_Orb
# M 333.80306507 +/- 3.4              (J2000 equator)
# n 366.05015522 +/- 6.11             Peri.  112.78625 +/- 0.35
# a 41774.3572 +/- 465                Node   255.96007 +/- 0.11
# e   0.5838322 +/- 0.00705           Incl.   14.66733 +/- 0.026
# P1416.17m/0.983d           H 32.3   G  0.15   U 14.0
# q 17385.1409 +/- 487    Q 66163.5734 +/- 444
# From 7 observations 2022 Mar. 8 (1.8 hr); mean residual 8".104
#
# 1 NoradU COSPAR   Epoch.epoch     dn/dt/2  d2n/dt2/6 BSTAR    T El# C
# 2 NoradU Inclina RAAscNode Eccent  ArgPeri MeanAno  MeanMotion Rev# C

# Worst residual: 2.05 km
# MJD 59611.000000 (2022 Feb  1  0:00)
A10GxdK
1 79990U 22999ZZQ 22032.49919926  .00000000  00000-0  00000-0 0 15350
2 79990 014.8201 258.0755 5834061 109.9361 297.7178 01.01694811    02

# Worst residual: 2.00 km
# MJD 59612.000000 (2022 Feb  2  0:00)
A10GxdK
1 79990U 22999ZZQ 22033.49919926  .00000000  00000-0  00000-0 0 15351
2 79990 014.8193 258.0303 5834053 110.0160 303.7923 01.01694589    00

# Worst residual: 2.20 km
# MJD 59613.000000 (2022 Feb  3  0:00)
A10GxdK
1 79990U 22999ZZQ 22034.49919926  .00000000  00000-0  00000-0 0 15352
2 79990 014.8184 257.9879 5833924 110.0931 309.8680 01.01694282    05

# Worst residual: 2.41 km
# MJD 59614.000000 (2022 Feb  4  0:00)
A10GxdK
1 79990U 22999ZZQ 22035.49919926  .00000000  00000-0  00000-0 0 15353
2 79990 014.8174 257.9471 5833725 110.1676 315.9462 01.01694100    03

# Worst residual: 2.44 km
# MJD 59615.000000 (2022 Feb  5  0:00)
A10GxdK
1 79990U 22999ZZQ 22036.49919926  .00000000  00000-0  00000-0 0 15354
2 79990 014.8163 257.9063 5833506 110.2409 322.0269 01.01693970    08

# Worst residual: 2.42 km
# MJD 59616.000000 (2022 Feb  6  0:00)
A10GxdK
1 79990U 22999ZZQ 22037.49919926  .00000000  00000-0  00000-0 0 15355
2 79990 014.8154 257.8643 5833347 110.3146 328.1095 01.01694072    01

# Worst residual: 2.30 km
# MJD 59617.000000 (2022 Feb  7  0:00)
A10GxdK
1 79990U 22999ZZQ 22038.49919926  .00000000  00000-0  00000-0 0 15356
2 79990 014.8147 257.8207 5833198 110.3895 334.1931 01.01694482    05

# Worst residual: 2.06 km
# MJD 59618.000000 (2022 Feb  8  0:00)
A10GxdK
1 79990U 22999ZZQ 22039.49919926  .00000000  00000-0  00000-0 0 15357
2 79990 014.8143 257.7753 5833084 110.4662 340.2764 01.01694745    07

# Worst residual: 1.77 km
# MJD 59619.000000 (2022 Feb  9  0:00)
A10GxdK
1 79990U 22999ZZQ 22040.49919926  .00000000  00000-0  00000-0 0 15359
2 79990 014.8140 257.7294 5832945 110.5440 346.3587 01.01695187    05

# Worst residual: 1.78 km
# MJD 59620.000000 (2022 Feb 10  0:00)
A10GxdK
1 79990U 22999ZZQ 22041.49919926  .00000000  00000-0  00000-0 0 15350
2 79990 014.8137 257.6838 5832766 110.6217 352.4406 01.01695209    01

# Worst residual: 1.72 km
# MJD 59621.000000 (2022 Feb 11  0:00)
A10GxdK
1 79990U 22999ZZQ 22042.49919926  .00000000  00000-0  00000-0 0 15351
2 79990 014.8133 257.6395 5832502 110.6984 358.5221 01.01695360    04

# Worst residual: 1.62 km
# MJD 59622.000000 (2022 Feb 12  0:00)
A10GxdK
1 79990U 22999ZZQ 22043.49919926  .00000000  00000-0  00000-0 0 15352
2 79990 014.8126 257.5962 5832174 110.7737 004.6044 01.01695441    09

# Worst residual: 1.58 km
# MJD 59623.000000 (2022 Feb 13  0:00)
A10GxdK
1 79990U 22999ZZQ 22044.49919926  .00000000  00000-0  00000-0 0 15353
2 79990 014.8116 257.5535 5831830 110.8477 010.6881 01.01695463    04

# Worst residual: 1.56 km
# MJD 59624.000000 (2022 Feb 14  0:00)
A10GxdK
1 79990U 22999ZZQ 22045.49919926  .00000000  00000-0  00000-0 0 15354
2 79990 014.8103 257.5098 5831544 110.9222 016.7735 01.01695446    01

# Worst residual: 1.73 km
# MJD 59625.000000 (2022 Feb 15  0:00)
A10GxdK
1 79990U 22999ZZQ 22046.49919926  .00000000  00000-0  00000-0 0 15355
2 79990 014.8089 257.4654 5831360 110.9968 022.8598 01.01695756    03

# Worst residual: 1.90 km
# MJD 59626.000000 (2022 Feb 16  0:00)
A10GxdK
1 79990U 22999ZZQ 22047.49919926  .00000000  00000-0  00000-0 0 15356
2 79990 014.8079 257.4170 5831354 111.0761 028.9451 01.01695570    00

# Worst residual: 1.94 km
# MJD 59627.000000 (2022 Feb 17  0:00)
A10GxdK
1 79990U 22999ZZQ 22048.49919926  .00000000  00000-0  00000-0 0 15357
2 79990 014.8072 257.3660 5831453 111.1598 035.0272 01.01695728    00

# Worst residual: 1.97 km
# MJD 59628.000000 (2022 Feb 18  0:00)
A10GxdK
1 79990U 22999ZZQ 22049.49919926  .00000000  00000-0  00000-0 0 15358
2 79990 014.8068 257.3112 5831571 111.2501 041.1044 01.01696108    01

# Worst residual: 1.90 km
# MJD 59629.000000 (2022 Feb 19  0:00)
A10GxdK
1 79990U 22999ZZQ 22050.49919926  .00000000  00000-0  00000-0 0 15350
2 79990 014.8070 257.2564 5831545 111.3429 047.1760 01.01696578    07

# Worst residual: 2.02 km
# MJD 59630.000000 (2022 Feb 20  0:00)
A10GxdK
1 79990U 22999ZZQ 22051.49919926  .00000000  00000-0  00000-0 0 15351
2 79990 014.8071 257.2043 5831237 111.4352 053.2435 01.01696764    08

# Worst residual: 2.22 km
# MJD 59631.000000 (2022 Feb 21  0:00)
A10GxdK
1 79990U 22999ZZQ 22052.49919926  .00000000  00000-0  00000-0 0 15352
2 79990 014.8069 257.1566 5830624 111.5232 059.3101 01.01696801    00

# Worst residual: 2.29 km
# MJD 59632.000000 (2022 Feb 22  0:00)
A10GxdK
1 79990U 22999ZZQ 22053.49919926  .00000000  00000-0  00000-0 0 15353
2 79990 014.8060 257.1132 5829788 111.6051 065.3789 01.01696489    00

# Worst residual: 2.26 km
# MJD 59633.000000 (2022 Feb 23  0:00)
A10GxdK
1 79990U 22999ZZQ 22054.49919926  .00000000  00000-0  00000-0 0 15354
2 79990 014.8045 257.0719 5828910 111.6823 071.4522 01.01695829    06

# Worst residual: 2.30 km
# MJD 59634.000000 (2022 Feb 24  0:00)
A10GxdK
1 79990U 22999ZZQ 22055.49919926  .00000000  00000-0  00000-0 0 15355
2 79990 014.8025 257.0309 5828182 111.7568 077.5294 01.01694749    00

# Worst residual: 2.51 km
# MJD 59635.000000 (2022 Feb 25  0:00)
A10GxdK
1 79990U 22999ZZQ 22056.49919926  .00000000  00000-0  00000-0 0 15356
2 79990 014.8008 256.9853 5827689 111.8342 083.6093 01.01693995    02

# Worst residual: 2.73 km
# MJD 59636.000000 (2022 Feb 26  0:00)
A10GxdK
1 79990U 22999ZZQ 22057.49919926  .00000000  00000-0  00000-0 0 15357
2 79990 014.7993 256.9385 5827457 111.9132 089.6886 01.01693153    07

# Worst residual: 2.66 km
# MJD 59637.000000 (2022 Feb 27  0:00)
A10GxdK
1 79990U 22999ZZQ 22058.49919926  .00000000  00000-0  00000-0 0 15358
2 79990 014.7983 256.8903 5827385 111.9947 095.7658 01.01692721    00

# Worst residual: 2.47 km
# MJD 59638.000000 (2022 Feb 28  0:00)
A10GxdK
1 79990U 22999ZZQ 22059.49919926  .00000000  00000-0  00000-0 0 15359
2 79990 014.7973 256.8443 5827391 112.0751 101.8410 01.01692154    05

# Worst residual: 2.09 km
# MJD 59639.000000 (2022 Mar  1  0:00)
A10GxdK
1 79990U 22999ZZQ 22060.49919926  .00000000  00000-0  00000-0 0 15351
2 79990 014.7964 256.8001 5827371 112.1546 107.9148 01.01691841    03

# Worst residual: 1.74 km
# MJD 59640.000000 (2022 Mar  2  0:00)
A10GxdK
1 79990U 22999ZZQ 22061.49919926  .00000000  00000-0  00000-0 0 15352
2 79990 014.7954 256.7580 5827243 112.2323 113.9885 01.01692035    06

# Worst residual: 1.70 km
# MJD 59641.000000 (2022 Mar  3  0:00)
A10GxdK
1 79990U 22999ZZQ 22062.49919926  .00000000  00000-0  00000-0 0 15353
2 79990 014.7944 256.7172 5827063 112.3078 120.0639 01.01692119    09

# Worst residual: 1.86 km
# MJD 59642.000000 (2022 Mar  4  0:00)
A10GxdK
1 79990U 22999ZZQ 22063.49919926  .00000000  00000-0  00000-0 0 15354
2 79990 014.7933 256.6767 5826855 112.3821 126.1414 01.01692218    08

# Worst residual: 2.30 km
# MJD 59643.000000 (2022 Mar  5  0:00)
A10GxdK
1 79990U 22999ZZQ 22064.49919926  .00000000  00000-0  00000-0 0 15355
2 79990 014.7923 256.6354 5826662 112.4561 132.2208 01.01692306    04
